NORAD_CAT_ID,OBJECT_NAME,OBJECT_TYPE,EPOCH,MEAN_MOTION,ECCENTRICITY,INCLINATION,RA_OF_ASC_NODE,ARG_OF_PERICENTER,MEAN_ANOMALY,BSTAR,MEAN_MOTION_DOT,MEAN_MOTION_DDOT,TLE_LINE0,TLE_LINE1,TLE_LINE2,SEMIMAJOR_AXIS,PERIOD,APOGEE,PERIGEE,DECAYED
53735.0,STARLINK-4618,PAYLOAD,2022-09-23 20:00:01,15.73250697,0.0001436,53.2148,180.4118,137.0346,249.1277,1.5456e-05,1.554e-05,0.0,0 STARLINK-4618,1 53735U 22107AM  22266.83335648  .00001554  00000-0  15456-4 0  9993,2 53735  53.2148 180.4118 0001436 137.0346 249.1277 15.73250697  1300,6727.751,91.53,350.582,348.65,0.0
53735.0,STARLINK-4618,PAYLOAD,2022-09-24 06:00:00,15.7323241,0.0001136,53.2141,178.3514,136.0048,91.3497,0.00011911,0.00016151,0.0,0 STARLINK-4618,1 53735U 22107AM  22267.25001157  .00016151  00000-0  11911-3 0  9995,2 53735  53.2141 178.3514 0001136 136.0048  91.3497 15.73232410  3120,6727.803000000001,91.531,350.432,348.903,0.0
53735.0,STARLINK-4618,PAYLOAD,2022-09-24 14:00:01,15.73199491,0.0001424,53.2141,176.6998,140.6069,175.8011,0.00035735,0.00049829,0.0,0 STARLINK-4618,1 53735U 22107AM  22267.58335648  .00049829  00000-0  35735-3 0  9994,2 53735  53.2141 176.6998 0001424 140.6069 175.8011 15.73199491  1300,6727.897,91.533,350.72,348.80400000000014,0.0
53735.0,STARLINK-4618,PAYLOAD,2022-09-24 22:00:00,15.73338031,0.000155,53.2159,175.0512,130.7463,274.5255,-0.0023061,-0.0031434,0.0,0 STARLINK-4618,1 53735U 22107AM  22267.91667824 -.00314340  00000-0 -23061-2 0  9998,2 53735  53.2159 175.0512 0001550 130.7463 274.5255 15.73338031  3227,6727.502,91.525,350.409,348.324,0.0
53735.0,STARLINK-4618,PAYLOAD,2022-09-25 06:00:00,15.72975875,0.0001619,53.216,173.4027,139.8784,354.3991,-0.0033369,-0.00440973,0.0,0 STARLINK-4618,1 53735U 22107AM  22268.25001157 -.00440973  00000-0 -33369-2 0  9991,2 53735  53.2160 173.4027 0001619 139.8784 354.3991 15.72975875  3286,6728.534000000002,91.546,351.48900000000015,349.31,0.0
53735.0,STARLINK-4618,PAYLOAD,2022-09-25 14:00:01,15.72756949,0.0001843,53.2174,171.7515,147.7064,75.0552,-0.0096108,-0.01175883,0.0,0 STARLINK-4618,1 53735U 22107AM  22268.58334491 -.01175883  00000-0 -96108-2 0  9993,2 53735  53.2174 171.7515 0001843 147.7064  75.0552 15.72756949  3337,6729.159000000002,91.559,352.264,349.783,0.0
53735.0,STARLINK-4618,PAYLOAD,2022-09-25 22:00:01,15.71901085,0.0001385,53.2176,170.1053,135.0744,175.6224,-0.0099873999999999,-0.01197534,0.0,0 STARLINK-4618,1 53735U 22107AM  22268.91668981 -.01197534  00000-0 -99874-2 0  9994,2 53735  53.2176 170.1053 0001385 135.0744 175.6224 15.71901085  1305,6731.601,91.609,354.398,352.534,0.0
53735.0,STARLINK-4618,PAYLOAD,2022-09-26 10:00:00,15.70617215,0.000144,53.2174,167.6376,133.5064,127.0001,-0.010578,-0.01200752,0.0,0 STARLINK-4618,1 53735U 22107AM  22269.41667824 -.01200752  00000-0 -10578-1 0  9995,2 53735  53.2174 167.6376 0001440 133.5064 127.0001 15.70617215  3463,6735.269,91.684,358.10400000000016,356.164,0.0
53735.0,STARLINK-4618,PAYLOAD,2022-09-26 14:00:01,15.70184961,0.0001334,53.2173,166.8155,129.3232,353.9615,-0.010706,-0.01194024,0.0,0 STARLINK-4618,1 53735U 22107AM  22269.58334491 -.01194024  00000-0 -10706-1 0  9991,2 53735  53.2173 166.8155 0001334 129.3232 353.9615 15.70184961  1309,6736.505,91.709,359.269,357.471,0.0
53735.0,STARLINK-4618,PAYLOAD,2022-09-26 22:00:00,15.69373404,0.0001804,53.2171,165.1756,144.6666,63.3744,-0.011674,-0.01252131,0.0,0 STARLINK-4618,1 53735U 22107AM  22269.91667824 -.01252131  00000-0 -11674-1 0  9996,2 53735  53.2171 165.1756 0001804 144.6666  63.3744 15.69373404  1304,6738.8269999999975,91.756,361.908,359.476,0.0
53735.0,STARLINK-4618,PAYLOAD,2022-09-27 06:00:00,15.68488599,0.0001453,53.2164,163.5375,140.7389,151.0662,-0.011715,-0.01215026,0.0,0 STARLINK-4618,1 53735U 22107AM  22270.25001157 -.01215026  00000-0 -11715-1 0  9994,2 53735  53.2164 163.5375 0001453 140.7389 151.0662 15.68488599  3592,6741.361,91.808,364.206,362.247,0.0
53735.0,STARLINK-4618,PAYLOAD,2022-09-27 14:00:01,15.67629115,0.0001240999999999,53.2168,161.8987,142.2375,232.291,-0.012109,-0.01212328,0.0,0 STARLINK-4618,1 53735U 22107AM  22270.58334491 -.01212328  00000-0 -12109-1 0  9990,2 53735  53.2168 161.8987 0001241 142.2375 232.2910 15.67629115  1308,6743.825,91.858,366.527,364.853,0.0
53735.0,STARLINK-4618,PAYLOAD,2022-09-27 22:00:01,15.66790089,0.0001585999999999,53.2171,160.265,145.2232,311.051,-0.012786,-0.01234528,0.0,0 STARLINK-4618,1 53735U 22107AM  22270.91668981 -.01234528  00000-0 -12786-1 0  9998,2 53735  53.2171 160.2650 0001586 145.2232 311.0510 15.66790089  1309,6746.232,91.908,369.167,367.027,0.0
53735.0,STARLINK-4618,PAYLOAD,2022-09-28 06:00:00,15.65901403,0.0001718,53.2173,158.6324,142.554,34.3336,-0.012793,-0.01195653,0.0,0 STARLINK-4618,1 53735U 22107AM  22271.25001157 -.01195653  00000-0 -12793-1 0  9995,2 53735  53.2173 158.6324 0001718 142.5540  34.3336 15.65901403  3754,6748.785,91.96,371.809,369.49,0.0
53735.0,STARLINK-4618,PAYLOAD,2022-09-28 14:00:01,15.65041981,0.0001698,53.2174,156.9998,141.9887,114.5317,-0.013197,-0.01191785,0.0,0 STARLINK-4618,1 53735U 22107AM  22271.58334491 -.01191785  00000-0 -13197-1 0  9992,2 53735  53.2174 156.9998 0001698 141.9887 114.5317 15.65041981  1302,6751.255,92.01,374.266,371.974,0.0
53735.0,STARLINK-4618,PAYLOAD,2022-09-28 22:00:00,15.64206806,0.0001625,53.217,155.3729,150.1784,184.9304,-0.013999,-0.01219487,0.0,0 STARLINK-4618,1 53735U 22107AM  22271.91667824 -.01219487  00000-0 -13999-1 0  9998,2 53735  53.2170 155.3729 0001625 150.1784 184.9304 15.64206806  3858,6753.658,92.059,376.62,374.425,0.0
53735.0,STARLINK-4618,PAYLOAD,2022-09-29 14:00:01,15.62471149,0.0001683,53.2172,152.1202,142.4563,346.7766,-0.0146229999999999,-0.01192178,0.0,0 STARLINK-4618,1 53735U 22107AM  22272.58334491 -.01192178  00000-0 -14623-1 0  9995,2 53735  53.2172 152.1202 0001683 142.4563 346.7766 15.62471149  1304,6758.659000000002,92.162,381.661,379.386,0.0
53735.0,STARLINK-4618,PAYLOAD,2022-09-29 20:00:01,15.61827435,0.0001440999999999,53.2174,150.9045,135.2761,320.7509,-0.014962,-0.01189574,0.0,0 STARLINK-4618,1 53735U 22107AM  22272.83335648 -.01189574  00000-0 -14962-1 0  9990,2 53735  53.2174 150.9045 0001441 135.2761 320.7509 15.61827435  4008,6760.515,92.2,383.355,381.406,0.0
53735.0,STARLINK-4618,PAYLOAD,2022-09-29 22:00:00,15.616253400000002,0.0001784,53.2167,150.4996,141.3005,63.43600000000001,-0.015303,-0.01205488,0.0,0 STARLINK-4618,1 53735U 22107AM  22272.91667824 -.01205488  00000-0 -15303-1 0  9996,2 53735  53.2167 150.4996 0001784 141.3005  63.4360 15.61625340  1306,6761.099,92.212,384.17,381.758,0.0
53735.0,STARLINK-4618,PAYLOAD,2022-09-30 14:00:01,15.59913333,0.0001457,53.2167,147.2596,138.3677,214.3004,-0.016397,-0.01208202,0.0,0 STARLINK-4618,1 53735U 22107AM  22273.58334491 -.01208202  00000-0 -16397-1 0  9992,2 53735  53.2167 147.2596 0001457 138.3677 214.3004 15.59913333  1305,6766.045,92.313,388.895,386.924,0.0
53735.0,STARLINK-4618,PAYLOAD,2022-09-30 16:00:00,15.59684896,0.0001484,53.2172,146.8554,129.4748,331.4019,-0.016243,-0.01188555,0.0,0 STARLINK-4618,1 53735U 22107AM  22273.66667824 -.01188555  00000-0 -16243-1 0  9998,2 53735  53.2172 146.8554 0001484 129.4748 331.4019 15.59684896  4130,6766.705,92.326,389.574,387.566,0.0
53735.0,STARLINK-4618,PAYLOAD,2022-09-30 22:00:00,15.59053973,0.0001583,53.217,145.6449,142.6185,282.4708,-0.016896,-0.01204973,0.0,0 STARLINK-4618,1 53735U 22107AM  22273.91667824 -.01204973  00000-0 -16896-1 0  9993,2 53735  53.2170 145.6449 0001583 142.6185 282.4708 15.59053973  1302,6768.531,92.364,391.467,389.324,0.0
53735.0,STARLINK-4618,PAYLOAD,2022-10-01 14:00:01,15.57327994,0.0001613,53.2174,142.417,132.253,74.5949,-0.017776,-0.01189026,0.0,0 STARLINK-4618,1 53735U 22107AM  22274.58334491 -.01189026  00000-0 -17776-1 0  9997,2 53735  53.2174 142.4170 0001613 132.2530  74.5949 15.57327994  4276,6773.531,92.466,396.48800000000006,394.30300000000005,0.0
53735.0,STARLINK-4618,PAYLOAD,2022-10-01 22:00:00,15.56489832,0.0001831,53.2169,140.8091,144.719,131.44899999999998,-0.018767,-0.01213632,0.0,0 STARLINK-4618,1 53735U 22107AM  22274.91667824 -.01213632  00000-0 -18767-1 0  9995,2 53735  53.2169 140.8091 0001831 144.7190 131.4490 15.56489832  1300,6775.962,92.516,399.068,396.587,0.0
53735.0,STARLINK-4618,PAYLOAD,2022-10-02 06:00:00,15.55632178,0.0001494,53.2164,139.2009,141.5463,202.9237,-0.019378,-0.01213483,0.0,0 STARLINK-4618,1 53735U 22107AM  22275.25001157 -.01213483  00000-0 -19378-1 0  9997,2 53735  53.2164 139.2009 0001494 141.5463 202.9237 15.55632178  4374,6778.453,92.567,401.33,399.305,0.0
53735.0,STARLINK-4618,PAYLOAD,2022-10-02 14:00:01,15.54771615,0.0001311,53.2165,137.5936,130.2126,281.5295,-0.019887,-0.01225668,0.0,0 STARLINK-4618,1 53735U 22107AM  22275.58334491 -.01225668  00000-0 -19887-1 0  9996,2 53735  53.2165 137.5936 0001311 130.2126 281.5295 15.54771615  1300,6780.954000000002,92.618,403.708,401.93,0.0
53735.0,STARLINK-4618,PAYLOAD,2022-10-02 22:00:00,15.53913683,0.0001821999999999,53.2168,135.9917,145.0187,332.9642,-0.020513,-0.01225155,0.0,0 STARLINK-4618,1 53735U 22107AM  22275.91667824 -.01225155  00000-0 -20513-1 0  9991,2 53735  53.2168 135.9917 0001822 145.0187 332.9642 15.53913683  1301,6783.449000000001,92.669,406.55,404.078,0.0
53735.0,STARLINK-4618,PAYLOAD,2022-10-03 06:00:00,15.53057637,0.0001517,53.2165,134.3895,131.0506,52.1432,-0.0211979999999999,-0.01226753,0.0,0 STARLINK-4618,1 53735U 22107AM  22276.25001157 -.01226753  00000-0 -21198-1 0  9995,2 53735  53.2165 134.3895 0001517 131.0506  52.1432 15.53057637  4531,6785.941999999999,92.72,408.836,406.777,0.0
53735.0,STARLINK-4618,PAYLOAD,2022-10-03 14:00:01,15.52183766,0.0001693,53.2174,132.7883,135.9526,111.4305,-0.021408,-0.01202528,0.0,0 STARLINK-4618,1 53735U 22107AM  22276.58334491 -.01202528  00000-0 -21408-1 0  9999,2 53735  53.2174 132.7883 0001693 135.9526 111.4305 15.52183766  1302,6788.488,92.773,411.503,409.204,0.0
